[{"OBJECT_NAME":"STARLINK-30235","OBJECT_ID":"2023-096E","EPOCH":"2026-03-09T22:00:01.999584","MEAN_MOTION":15.1666611,"ECCENTRICITY":0.00012493,"INCLINATION":42.9991,"RA_OF_ASC_NODE":221.1883,"ARG_OF_PERICENTER":288.6797,"MEAN_ANOMALY":312.541,"EPHEMERIS_TYPE":0,"CLASSIFICATION_TYPE":"U","NORAD_CAT_ID":57294,"ELEMENT_SET_NO":999,"REV_AT_EPOCH":578,"BSTAR":0.0049850557,"MEAN_MOTION_DOT":0.00100537,"MEAN_MOTION_DDOT":0},{"OBJECT_NAME":"PHI 1","OBJECT_ID":"2025-276DP","EPOCH":"2026-03-09T17:39:12.133440","MEAN_MOTION":15.19973113,"ECCENTRICITY":0.00029619,"INCLINATION":97.4203,"RA_OF_ASC_NODE":144.0831,"ARG_OF_PERICENTER":121.0034,"MEAN_ANOMALY":239.1492,"EPHEMERIS_TYPE":0,"CLASSIFICATION_TYPE":"U","NORAD_CAT_ID":66775,"ELEMENT_SET_NO":999,"REV_AT_EPOCH":1533,"BSTAR":0.00038773813,"MEAN_MOTION_DOT":8.281e-5,"MEAN_MOTION_DDOT":0}]
